<?xml version="1.0" encoding="UTF-8"?>
<kml xmlns="http://www.opengis.net/kml/2.2"  xmlns:gx="http://www.google.com/kml/ext/2.2" xmlns:kml="http://www.opengis.net/kml/2.2"    
     xmlns:atom="http://www.w3.org/2005/Atom">
    <Document>
        <name>UMS Walk 2026</name>
        
                        <atom:author>             
                <atom:name>
      
    </atom:name>         
            </atom:author> 
        
                                
        <description><![CDATA[<br/><p> </p><p><br/>Converted using <b><a href='http://gpx2kml.com' title='Go to gpx2kml.com'>gpx2kml.com</a></b></p><br/>]]></description>
        <visibility>1</visibility>
        <open>1</open>
        
                <Style id="red">
            <LineStyle>
            <color>C81400FF</color>
            <width>4</width>
            </LineStyle>
        </Style>
        <Style id="route_red">
            <LineStyle>
            <color>961400FF</color>
            <width>4</width>
            </LineStyle>
        </Style>
                <Style id="green">
            <LineStyle>
            <color>C878FF00</color>
            <width>4</width>
            </LineStyle>
        </Style>
        <Style id="route_green">
            <LineStyle>
            <color>9678FF00</color>
            <width>4</width>
            </LineStyle>
        </Style>
                <Style id="blue">
            <LineStyle>
            <color>C8FF7800</color>
            <width>4</width>
            </LineStyle>
        </Style>
        <Style id="route_blue">
            <LineStyle>
            <color>96FF7800</color>
            <width>4</width>
            </LineStyle>
        </Style>
                <Style id="cyan">
            <LineStyle>
            <color>C8F0FF14</color>
            <width>4</width>
            </LineStyle>
        </Style>
        <Style id="route_cyan">
            <LineStyle>
            <color>96F0FF14</color>
            <width>4</width>
            </LineStyle>
        </Style>
                <Style id="orange">
            <LineStyle>
            <color>C81478FF</color>
            <width>4</width>
            </LineStyle>
        </Style>
        <Style id="route_orange">
            <LineStyle>
            <color>961478FF</color>
            <width>4</width>
            </LineStyle>
        </Style>
                <Style id="dark_green">
            <LineStyle>
            <color>C8008C14</color>
            <width>4</width>
            </LineStyle>
        </Style>
        <Style id="route_dark_green">
            <LineStyle>
            <color>96008C14</color>
            <width>4</width>
            </LineStyle>
        </Style>
                <Style id="purple">
            <LineStyle>
            <color>C8FF7878</color>
            <width>4</width>
            </LineStyle>
        </Style>
        <Style id="route_purple">
            <LineStyle>
            <color>96FF7878</color>
            <width>4</width>
            </LineStyle>
        </Style>
                <Style id="pink">
            <LineStyle>
            <color>C8A078F0</color>
            <width>4</width>
            </LineStyle>
        </Style>
        <Style id="route_pink">
            <LineStyle>
            <color>96A078F0</color>
            <width>4</width>
            </LineStyle>
        </Style>
                <Style id="brown">
            <LineStyle>
            <color>C8143C96</color>
            <width>4</width>
            </LineStyle>
        </Style>
        <Style id="route_brown">
            <LineStyle>
            <color>96143C96</color>
            <width>4</width>
            </LineStyle>
        </Style>
                <Style id="dark_blue">
            <LineStyle>
            <color>C8F01414</color>
            <width>4</width>
            </LineStyle>
        </Style>
        <Style id="route_dark_blue">
            <LineStyle>
            <color>96F01414</color>
            <width>4</width>
            </LineStyle>
        </Style>
        
                
                
        <Folder>
            <name>Tracks</name>
            <description>A list of tracks</description>
            <visibility>1</visibility>            
            <open>0</open>
                                                            
                <Placemark>
                    <visibility>0</visibility>            
                    <open>0</open> 
                    <styleUrl>#red</styleUrl>
                    <name>UMS Walk 2026</name>
                    <description>Track no. 1</description>
                    <LineString>
                        <extrude>true</extrude>
                        <tessellate>true</tessellate>
                        <altitudeMode>clampToGround</altitudeMode> 
                        <coordinates>
                            103.827313,1.359789,23.382999 103.827025,1.359558,23.382999 103.826996,1.359502,23.382999 103.826942,1.359520,23.382999 103.826727,1.359726,23.382999 103.826556,1.359815,23.495387 103.826518,1.359867,23.585604 103.826169,1.360338,24.406749 103.826080,1.360431,24.587056 103.825858,1.360592,24.971164 103.825602,1.360729,25.377833 103.825473,1.360766,25.565788 103.825326,1.360753,25.772468 103.824530,1.360539,27.192849 103.824245,1.360523,27.696443 103.824111,1.360458,27.959208 103.824021,1.360456,28.118026 103.823856,1.360407,28.421694 103.823370,1.360406,29.286353 103.823306,1.360443,29.421456 103.823217,1.360572,29.707909 103.823159,1.360597,29.823331 103.822956,1.360589,30.194585 103.822816,1.360706,30.528042 103.822738,1.360735,30.680119 103.822451,1.360792,31.214838 103.822226,1.360799,31.626206 103.822014,1.360777,32.015701 103.821920,1.360658,32.292873 103.821820,1.360593,32.714713 103.821737,1.360564,33.099419 103.821507,1.360561,34.105866 103.821447,1.360526,34.409819 103.821307,1.360595,35.092783 103.821188,1.360604,35.614953 103.821092,1.360581,36.046893 103.820973,1.360385,37.050385 103.820766,1.359935,39.218186 103.820706,1.359750,40.069376 103.820597,1.359592,40.870615 103.820029,1.358959,44.377769 103.819825,1.358776,45.507859 103.819686,1.358583,46.488697 103.819514,1.358262,47.646255 103.819364,1.357908,47.605581 103.819235,1.357500,47.560310 103.819107,1.357200,47.525803 103.818986,1.357101,47.509266 103.818809,1.357065,47.490161 103.818360,1.357058,47.062717 103.818256,1.357036,46.856476 103.817840,1.356909,46.012589 103.817355,1.356971,45.063965 103.816979,1.357118,44.280678 103.816837,1.357230,43.973084 103.816773,1.357288,43.969637 103.816734,1.357272,43.967955 103.816714,1.357294,43.966769 103.816552,1.357141,43.957876 103.816501,1.357064,43.954190 103.816425,1.356816,43.943838 103.816563,1.356486,43.929562 103.816590,1.356267,43.920755 103.816502,1.355962,43.908085 103.816453,1.355904,43.905055 103.816298,1.355825,44.044060 103.816104,1.355835,44.312762 103.815671,1.355908,44.920155 103.815250,1.355856,45.506921 103.815030,1.355790,45.824637 103.813717,1.355257,46.562006 103.813293,1.355178,46.635263 103.812432,1.355254,46.725232 103.812184,1.355295,46.739594 103.812102,1.355351,46.745268 103.812059,1.355435,46.750660 103.812026,1.355843,46.774053 103.812042,1.355941,46.779728 103.812152,1.356136,46.792522 103.812431,1.356397,47.056316 103.812554,1.356544,47.242300 103.812584,1.356600,47.303948 103.812600,1.356747,47.447445 103.812580,1.356844,47.543556 103.812814,1.356945,47.790830 103.812621,1.357004,47.986631 103.812499,1.357041,48.110318 103.812355,1.357109,48.264823 103.812294,1.357299,48.458471 103.812165,1.357515,49.407307 103.812085,1.357954,51.772730 103.811951,1.358341,53.943631 103.811952,1.358458,54.563866 103.812026,1.358657,55.689291 103.812102,1.358782,56.464714 103.812110,1.358899,57.086373 103.812090,1.358955,57.401580 103.811870,1.359266,59.414334 103.811816,1.359384,60.098896 103.811758,1.359678,61.679769 103.811774,1.359765,62.146430 103.811817,1.359843,62.616274 103.811923,1.359939,63.370609 103.812354,1.360233,66.122438 103.812587,1.360368,67.542747 103.812624,1.360390,67.485107 103.812511,1.360492,67.155546 103.812512,1.360560,67.008291 103.812586,1.360689,66.686299 103.812544,1.360717,66.577023 103.810640,1.361274,61.631597 103.810518,1.361251,61.237041 103.810389,1.361273,60.821149 103.810322,1.361285,60.604830 103.810146,1.361327,60.029778 103.810054,1.361347,59.730564 103.809815,1.361376,58.965435 103.809682,1.361403,58.534127 103.809558,1.361387,58.136779 103.809442,1.361406,57.771404 103.809410,1.361390,57.662540 103.809304,1.361200,57.000404 103.808943,1.360379,54.270883 103.809006,1.360351,54.061104 103.808705,1.359865,52.285121 103.808271,1.358877,48.256967 103.808188,1.358634,47.298425 103.807900,1.358099,45.001626 103.807842,1.357942,44.352419 103.807185,1.356418,38.038587 103.807201,1.356307,37.664922 103.807232,1.356229,37.385268 103.807674,1.355125,33.423104 103.807712,1.355016,33.038497 103.808102,1.354111,29.590964 103.808115,1.354027,29.292464 103.808065,1.353883,28.757166 103.808156,1.353772,28.253163 103.807531,1.353352,25.709989 103.807156,1.353045,24.205018 103.807034,1.352986,23.784213 103.806714,1.352891,22.747728 103.806352,1.352851,21.616871 103.806291,1.352827,21.413326 103.805964,1.352621,20.506876 103.805945,1.352129,19.636937 103.805968,1.351954,19.325081 103.806043,1.351795,19.014482 103.806113,1.351701,18.807426 103.806382,1.351435,18.139106 103.806421,1.351390,18.033905 103.806460,1.351345,17.928705 103.806811,1.350859,17.165865 103.807093,1.350330,16.477301 103.807129,1.350265,16.391955 103.807227,1.350126,16.196611 103.807514,1.349771,15.672289 103.807661,1.349654,15.764406 103.808176,1.349441,16.141040 103.808455,1.349295,16.353851 103.808766,1.349051,16.621010 103.809220,1.348831,16.940826 103.810072,1.348469,17.428429 103.810504,1.348203,17.695662 103.810559,1.348172,17.728918 103.810879,1.347993,17.760894 103.811294,1.347708,17.631329 103.811335,1.347609,17.603747 103.811393,1.347579,17.586942 103.811496,1.347565,17.560192 103.812060,1.347255,17.394564 103.812824,1.346538,17.014671 103.812893,1.346446,16.970628 103.813121,1.345759,16.693391 103.813107,1.345667,16.682649 103.812923,1.345403,17.300012 103.812964,1.344772,18.513246 103.812966,1.344739,18.576678 103.813006,1.344499,19.043508 103.813113,1.344426,19.291986 103.813590,1.344294,20.093022 103.813806,1.344280,20.028777 103.814130,1.344329,19.931516 103.814547,1.344323,19.807733 103.814679,1.344292,19.767488 103.815018,1.344085,19.649585 103.815150,1.343940,19.591376 103.815201,1.343843,19.681324 103.815219,1.343734,19.848857 103.815196,1.343642,19.992665 103.815145,1.343430,20.323324 103.815070,1.343295,20.557505 103.814888,1.343077,20.988115 103.814825,1.342958,21.192292 103.814805,1.342826,21.394751 103.814813,1.342571,21.781642 103.814886,1.342129,22.688968 103.814892,1.342080,22.874286 103.814927,1.341848,23.755061 103.814921,1.341376,25.527087 103.814817,1.340723,28.009319 103.814896,1.340595,28.573936 103.815076,1.340484,29.143609 103.815202,1.340350,29.333550 103.815776,1.340176,29.952853 103.816305,1.339774,30.638931 103.816460,1.339604,30.876499 103.816542,1.339469,30.705066 103.816560,1.339390,30.561926 103.816535,1.339222,30.261861 103.816477,1.339041,29.926089 103.816493,1.338972,29.800957 103.817031,1.338493,28.528563 103.817241,1.338338,28.067534 103.817448,1.338143,27.725587 103.819951,1.340917,27.370560 103.820081,1.341064,27.311935 103.820470,1.341602,27.113591 103.820499,1.341735,27.072919 103.820494,1.341917,27.018520 103.820151,1.342258,26.911131 103.820081,1.342380,26.921327 103.820018,1.342775,26.950324 103.820094,1.343030,26.969613 103.820219,1.343168,26.983110 103.820383,1.343275,26.997302 103.820838,1.343458,27.032847 103.821094,1.343501,27.095686 103.821829,1.343744,27.293892 103.822142,1.343815,27.376067 103.822422,1.343849,27.448283 103.822744,1.343851,27.535602 103.822976,1.343810,27.604134 103.823135,1.343710,27.658777 103.823187,1.343678,27.676539 103.823272,1.343488,27.737100 103.823372,1.343167,27.834926 103.823431,1.343023,27.880204 103.823484,1.343003,27.896682 103.823537,1.343053,27.917880 103.823531,1.343162,27.949644 103.823557,1.343345,28.003425 103.823640,1.343582,28.077786 103.823806,1.343861,28.174346 103.823990,1.344009,28.244573 103.824274,1.344143,28.337958 103.824440,1.344155,28.387450 103.824833,1.344182,28.504592 103.825460,1.344178,28.718194 103.825587,1.344158,28.763959 103.825705,1.344105,28.810007 103.826151,1.343861,28.990984 103.826233,1.343821,29.023462 103.826388,1.343738,29.086053 103.826446,1.343703,29.110168 103.826652,1.343635,29.187391 103.826958,1.343444,29.326826 103.827131,1.343236,29.431840 103.827238,1.343161,29.482556 103.827343,1.343118,29.526593 103.827710,1.343111,29.669051 103.827965,1.343016,29.774665 103.828240,1.342832,29.889465 103.828603,1.342551,29.849974 103.829314,1.341848,29.763956 103.829666,1.341336,29.059375 103.829740,1.341418,28.817947 103.829740,1.341478,28.686784 103.829517,1.342690,25.992839 103.829549,1.342778,25.784165 103.829636,1.342831,25.509636 103.829687,1.342837,25.371262 103.830147,1.342747,24.108220 103.830493,1.342737,23.175490 103.830594,1.342745,22.902480 103.830753,1.342794,22.454140 103.831070,1.342805,21.599429 103.831180,1.342756,21.274927 103.831253,1.342679,20.988976 103.831309,1.342621,21.051892 103.831389,1.342428,21.339105 103.831404,1.342307,21.506726 103.831411,1.342056,21.851931 103.831365,1.341601,22.480645 103.831424,1.341597,22.561921 103.831627,1.341653,22.851353 103.831604,1.341717,22.944846 103.831660,1.341736,23.026124 103.831673,1.341698,23.081337 103.831743,1.341722,23.183046 103.831828,1.341752,23.306937 103.831813,1.341795,23.369544 103.831864,1.341813,23.419420 103.831889,1.341743,23.341576 103.831968,1.341771,23.253818 103.831940,1.341852,23.164064 103.831997,1.341872,23.100815 103.832022,1.341798,23.019014 103.832147,1.341842,22.880261 103.832235,1.341868,22.784184 103.832293,1.341940,22.687366 103.832341,1.341968,22.629180 103.832335,1.341988,22.607312 103.832933,1.342209,21.939786 103.833002,1.342174,21.858775 103.833189,1.342208,21.659772 103.833128,1.342284,21.557721 103.833056,1.342399,21.145001 103.833128,1.342284,20.708570 103.833189,1.342208,20.395110 103.833235,1.342127,20.095477 103.833321,1.342035,19.690406 103.833338,1.341984,19.517476 103.833425,1.341840,18.976305 103.833714,1.341752,18.004727 103.833897,1.341693,17.386352 103.834204,1.341621,16.372237 103.834477,1.341831,15.870726 103.834536,1.341864,15.919169 103.834599,1.341966,16.005091 103.834734,1.342035,16.113733 103.834793,1.342202,16.240676 103.834880,1.342290,16.329358 103.834991,1.342173,16.444936 103.835139,1.342281,16.576231 103.835206,1.342330,16.635715 103.835378,1.342420,16.774821 103.835509,1.342496,16.883349 103.835576,1.342535,16.938903 103.835619,1.342559,16.974191 103.835640,1.343000,18.364380 103.835626,1.343098,18.751182 103.835600,1.343455,20.149785 103.835575,1.343494,20.330776 103.835245,1.344017,22.746902 103.835168,1.344105,23.203735 103.834960,1.344313,24.224254 103.834927,1.344375,24.370565 103.834883,1.344588,24.823666 103.834998,1.344867,25.452314 103.835046,1.344923,25.605951 103.835207,1.345025,26.002927 103.836387,1.345485,27.801042 103.836482,1.345644,27.790026 103.836496,1.345736,27.784490 103.836443,1.345844,27.777335 103.836393,1.345879,27.773706 103.835763,1.346118,27.733637 103.835534,1.346250,27.717919 103.834968,1.346764,27.991207 103.834875,1.346896,28.049753 103.834768,1.347132,28.143711 103.834482,1.347357,28.275643 103.834301,1.347467,28.352431 103.834201,1.347619,28.367130 103.833948,1.347850,28.360886 103.833672,1.347999,28.355171 103.833442,1.348190,28.349722 103.833158,1.348605,28.340558 103.832904,1.349047,28.349915 103.832768,1.349212,28.359150 103.832691,1.349269,28.363288 103.832156,1.349458,28.387792 103.831941,1.349567,28.398202 103.831491,1.350228,27.687036 103.831298,1.350460,27.167335 103.830931,1.350983,26.067027 103.830614,1.351356,25.233970 103.830322,1.351563,24.683636 103.830013,1.351732,24.142133 103.829962,1.351732,24.063726 103.829886,1.351696,23.934430 103.829835,1.351601,23.768625 103.829820,1.351005,22.851786 103.829795,1.350900,22.685802 103.829739,1.350810,22.567855 103.829682,1.350721,22.667978 103.829534,1.350620,22.837702 103.829280,1.350598,23.079180 103.829210,1.350614,23.147192 103.829102,1.350705,23.280971 103.828973,1.351021,23.604327 103.828877,1.351331,23.911779 103.828764,1.351976,25.307640 103.828712,1.352100,25.791110 103.828625,1.352202,26.273112 103.828156,1.352461,28.199168 103.827703,1.352832,30.304249 103.827322,1.353186,30.979425 103.827224,1.353230,31.047845 103.827117,1.353243,31.116492 103.826931,1.353220,31.235854 103.826705,1.353466,31.448637 103.826915,1.353761,31.679301 103.826781,1.353972,31.838523 103.826662,1.354089,31.549498 103.826713,1.354223,31.170552 103.826781,1.354212,30.988535 103.826812,1.354274,30.805331 103.826966,1.354411,30.260624 103.827171,1.354676,29.375182 103.827446,1.355049,28.150452 103.827539,1.355230,27.612628 103.828153,1.355899,25.348310 103.828973,1.356217,23.189832 103.828994,1.356225,23.134681 103.829010,1.356343,22.842365 103.829049,1.356420,22.686617 103.829246,1.356622,22.563525 103.829277,1.356653,22.544399 103.829334,1.356718,22.506684 103.829143,1.356886,22.395715 103.828823,1.357204,22.198906 103.828758,1.357443,22.090841 103.828645,1.357724,21.958700 103.828583,1.357917,21.907256 103.828541,1.358151,21.891312 103.828536,1.358180,21.889338 103.828618,1.358954,21.837139 103.828642,1.359156,21.823497 103.828624,1.359268,21.815889 103.828603,1.359306,21.812978 103.828528,1.359345,21.807310 103.828126,1.359381,21.793349 103.827994,1.359432,21.793349 103.827551,1.359972,21.793349 103.827463,1.359910,21.793349 103.827313,1.359789,21.793349                             
                        </coordinates>
                    </LineString>
                </Placemark>
                                        
        </Folder>
                
        <LookAt>
            <longitude>103.8212205</longitude>            
            <latitude>1.3497745</latitude>             
            <altitude>0</altitude>               
            <heading>0</heading>               
            <tilt>45</tilt>
            <range>1981</range>                    
            <altitudeMode>clampToGround</altitudeMode> 
        </LookAt>
    </Document>
</kml>